QIANFAN-73              
1 63159U 25046A   25201.51213139  .00000101  00000+0  13800-3 0  9992
2 63159  88.9848 334.9813 0015285 176.5415 183.5845 13.50955644 27805
QIANFAN-74              
1 63160U 25046B   25201.56984951  .00000087  00000+0  11615-3 0  9991
2 63160  88.9848 334.8640 0002022  98.0541 262.0839 13.50959753 27875
QIANFAN-75              
1 63161U 25046C   25200.89087104  .00000111  00000+0  15396-3 0  9999
2 63161  88.9848 335.1652 0016281 181.6764 178.4335 13.50956403 27657
QIANFAN-76              
1 63162U 25046D   25201.47907462  .00000071  00000+0  91664-4 0  9991
2 63162  88.9848 335.0861 0013909 179.4496 180.6673 13.50951814 27741
QIANFAN-77              
1 63163U 25046E   25201.54358294  .00000213  00000+0  14571-3 0  9992
2 63163  88.9847 334.2761 0015449 165.9633 194.1976 13.95997136 28197
QIANFAN-78              
1 63164U 25046F   25200.85379601  .00000132  00000+0  18512-3 0  9990
2 63164  88.9847 335.0159 0015126 184.2515 175.8510 13.50955314 27735
QIANFAN-79              
1 63165U 25046G   25200.88253751  .00000145  00000+0  20647-3 0  9997
2 63165  88.9851 335.1147 0014865 182.3511 177.7573 13.50957416 27682
QIANFAN-80              
1 63166U 25046H   25201.49164076  .00000093  00000+0  12582-3 0  9998
2 63166  88.9849 334.7631 0013787 184.3584 175.7449 13.50958064 27924
